[{"OBJECT_NAME":"IRIDIUM 33","OBJECT_ID":"1997-051C","EPOCH":"2026-03-15T05:37:15.540960","MEAN_MOTION":14.35105115,"ECCENTRICITY":0.00057273,"INCLINATION":86.3892,"RA_OF_ASC_NODE":29.3715,"ARG_OF_PERICENTER":275.4478,"MEAN_ANOMALY":84.6065,"EPHEMERIS_TYPE":0,"CLASSIFICATION_TYPE":"U","NORAD_CAT_ID":24946,"ELEMENT_SET_NO":999,"REV_AT_EPOCH":49161,"BSTAR":9.8895175e-5,"MEAN_MOTION_DOT":3.02e-6,"MEAN_MOTION_DDOT":0},{"OBJECT_NAME":"IRIDIUM 33 DEB","OBJECT_ID":"1997-051L","EPOCH":"2026-03-15T06:22:31.963008","MEAN_MOTION":14.434944,"ECCENTRICITY":0.00099528,"INCLINATION":86.4045,"RA_OF_ASC_NODE":21.3606,"ARG_OF_PERICENTER":196.864,"MEAN_ANOMALY":163.2232,"EPHEMERIS_TYPE":0,"CLASSIFICATION_TYPE":"U","NORAD_CAT_ID":33773,"ELEMENT_SET_NO":999,"REV_AT_EPOCH":89682,"BSTAR":0.00033425978,"MEAN_MOTION_DOT":1.15e-5,"MEAN_MOTION_DDOT":0},{"OBJECT_NAME":"IRIDIUM 33 DEB","OBJECT_ID":"1997-051N","EPOCH":"2026-03-15T05:55:35.306688","MEAN_MOTION":14.41777504,"ECCENTRICITY":0.00112724,"INCLINATION":86.3681,"RA_OF_ASC_NODE":10.0489,"ARG_OF_PERICENTER":210.7044,"MEAN_ANOMALY":270.5229,"EPHEMERIS_TYPE":0,"CLASSIFICATION_TYPE":"U","NORAD_CAT_ID":33775,"ELEMENT_SET_NO":999,"REV_AT_EPOCH":89473,"BSTAR":0.00046715539,"MEAN_MOTION_DOT":1.545e-5,"MEAN_MOTION_DDOT":0},{"OBJECT_NAME":"IRIDIUM 33 DEB","OBJECT_ID":"1997-051P","EPOCH":"2026-03-15T04:24:32.539680","MEAN_MOTION":14.38417232,"ECCENTRICITY":0.00122159,"INCLINATION":86.4034,"RA_OF_ASC_NODE":41.918,"ARG_OF_PERICENTER":252.8621,"MEAN_ANOMALY":117.8044,"EPHEMERIS_TYPE":0,"CLASSIFICATION_TYPE":"U","NORAD_CAT_ID":33776,"ELEMENT_SET_NO":999,"REV_AT_EPOCH":89411,"BSTAR":0.00031201515,"MEAN_MOTION_DOT":9.71e-6,"MEAN_MOTION_DDOT":0},{"OBJECT_NAME":"IRIDIUM 33 DEB","OBJECT_ID":"1997-051Q","EPOCH":"2026-03-15T06:27:34.135776","MEAN_MOTION":14.56363905,"ECCENTRICITY":0.00054387,"INCLINATION":86.3834,"RA_OF_ASC_NODE":354.9351,"ARG_OF_PERICENTER":325.3987,"MEAN_ANOMALY":34.6866,"EPHEMERIS_TYPE":0,"CLASSIFICATION_TYPE":"U","NORAD_CAT_ID":33777,"ELEMENT_SET_NO":999,"REV_AT_EPOCH":89880,"BSTAR":0.00060989006,"MEAN_MOTION_DOT":2.724e-5,"MEAN_MOTION_DDOT":0},{"OBJECT_NAME":"IRIDIUM 33 DEB","OBJECT_ID":"1997-051T","EPOCH":"2026-03-15T06:36:16.637184","MEAN_MOTION":14.42494114,"ECCENTRICITY":0.00094145,"INCLINATION":86.3468,"RA_OF_ASC_NODE":350.3947,"ARG_OF_PERICENTER":219.1249,"MEAN_ANOMALY":265.5247,"EPHEMERIS_TYPE":0,"CLASSIFICATION_TYPE":"U","NORAD_CAT_ID":33850,"ELEMENT_SET_NO":999,"REV_AT_EPOCH":89486,"BSTAR":0.00027925879,"MEAN_MOTION_DOT":9.45e-6,"MEAN_MOTION_DDOT":0},{"OBJECT_NAME":"IRIDIUM 33 DEB","OBJECT_ID":"1997-051W","EPOCH":"2026-03-15T04:19:12.015552","MEAN_MOTION":13.99610413,"ECCENTRICITY":0.02087928,"INCLINATION":85.9995,"RA_OF_ASC_NODE":309.277,"ARG_OF_PERICENTER":313.5251,"MEAN_ANOMALY":175.8381,"EPHEMERIS_TYPE":0,"CLASSIFICATION_TYPE":"U","NORAD_CAT_ID":33853,"ELEMENT_SET_NO":999,"REV_AT_EPOCH":86638,"BSTAR":0.0011442639,"MEAN_MOTION_DOT":2.031e-5,"MEAN_MOTION_DDOT":0},{"OBJECT_NAME":"IRIDIUM 33 DEB","OBJECT_ID":"1997-051AD","EPOCH":"2026-03-15T07:00:05.837472","MEAN_MOTION":14.69168761,"ECCENTRICITY":0.00108572,"INCLINATION":86.3871,"RA_OF_ASC_NODE":346.2262,"ARG_OF_PERICENTER":32.9436,"MEAN_ANOMALY":88.3227,"EPHEMERIS_TYPE":0,"CLASSIFICATION_TYPE":"U","NORAD_CAT_ID":33860,"ELEMENT_SET_NO":999,"REV_AT_EPOCH":90080,"BSTAR":0.0014983838,"MEAN_MOTION_DOT":8.848e-5,"MEAN_MOTION_DDOT":0},{"OBJECT_NAME":"IRIDIUM 33 DEB","OBJECT_ID":"1997-051AF","EPOCH":"2026-03-15T06:21:42.398784","MEAN_MOTION":14.71994661,"ECCENTRICITY":0.00516592,"INCLINATION":86.4128,"RA_OF_ASC_NODE":356.6569,"ARG_OF_PERICENTER":104.7439,"MEAN_ANOMALY":10.2101,"EPHEMERIS_TYPE":0,"CLASSIFICATION_TYPE":"U","NORAD_CAT_ID":33862,"ELEMENT_SET_NO":999,"REV_AT_EPOCH":90183,"BSTAR":0.0021879251,"MEAN_MOTION_DOT":0.00014058,"MEAN_MOTION_DDOT":0},{"OBJECT_NAME":"IRIDIUM 33 DEB","OBJECT_ID":"1997-051AK","EPOCH":"2026-03-15T05:08:43.892160","MEAN_MOTION":14.25778194,"ECCENTRICITY":0.01103113,"INCLINATION":86.2996,"RA_OF_ASC_NODE":53.8764,"ARG_OF_PERICENTER":224.3354,"MEAN_ANOMALY":145.9479,"EPHEMERIS_TYPE":0,"CLASSIFICATION_TYPE":"U","NORAD_CAT_ID":33866,"ELEMENT_SET_NO":999,"REV_AT_EPOCH":88128,"BSTAR":0.0011841559,"MEAN_MOTION_DOT":3.015e-5,"MEAN_MOTION_DDOT":0},{"OBJECT_NAME":"IRIDIUM 33 DEB","OBJECT_ID":"1997-051AP","EPOCH":"2026-03-15T06:45:43.659648","MEAN_MOTION":14.46437673,"ECCENTRICITY":0.00183928,"INCLINATION":86.3783,"RA_OF_ASC_NODE":18.5659,"ARG_OF_PERICENTER":232.6968,"MEAN_ANOMALY":246.9779,"EPHEMERIS_TYPE":0,"CLASSIFICATION_TYPE":"U","NORAD_CAT_ID":33870,"ELEMENT_SET_NO":999,"REV_AT_EPOCH":89474,"BSTAR":0.00075802211,"MEAN_MOTION_DOT":2.748e-5,"MEAN_MOTION_DDOT":0},{"OBJECT_NAME":"IRIDIUM 33 DEB","OBJECT_ID":"1997-051BA","EPOCH":"2026-03-15T05:37:56.963712","MEAN_MOTION":14.59246732,"ECCENTRICITY":0.00520151,"INCLINATION":86.3827,"RA_OF_ASC_NODE":66.4412,"ARG_OF_PERICENTER":221.3751,"MEAN_ANOMALY":153.8395,"EPHEMERIS_TYPE":0,"CLASSIFICATION_TYPE":"U","NORAD_CAT_ID":33881,"ELEMENT_SET_NO":999,"REV_AT_EPOCH":88848,"BSTAR":0.0036762337,"MEAN_MOTION_DOT":0.00017727,"MEAN_MOTION_DDOT":0},{"OBJECT_NAME":"IRIDIUM 33 DEB","OBJECT_ID":"1997-051BD","EPOCH":"2026-03-15T03:59:22.100064","MEAN_MOTION":14.80502106,"ECCENTRICITY":0.00123473,"INCLINATION":86.3713,"RA_OF_ASC_NODE":328.0208,"ARG_OF_PERICENTER":1.9353,"MEAN_ANOMALY":122.1226,"EPHEMERIS_TYPE":0,"CLASSIFICATION_TYPE":"U","NORAD_CAT_ID":33884,"ELEMENT_SET_NO":999,"REV_AT_EPOCH":90213,"BSTAR":0.002441973,"MEAN_MOTION_DOT":0.00018767,"MEAN_MOTION_DDOT":0},{"OBJECT_NAME":"IRIDIUM 33 DEB","OBJECT_ID":"1997-051BF","EPOCH":"2026-03-15T06:42:42.073632","MEAN_MOTION":14.36176806,"ECCENTRICITY":0.00123806,"INCLINATION":86.3855,"RA_OF_ASC_NODE":28.2534,"ARG_OF_PERICENTER":310.6415,"MEAN_ANOMALY":165.5262,"EPHEMERIS_TYPE":0,"CLASSIFICATION_TYPE":"U","NORAD_CAT_ID":33886,"ELEMENT_SET_NO":999,"REV_AT_EPOCH":89380,"BSTAR":0.00021156312,"MEAN_MOTION_DOT":6.36e-6,"MEAN_MOTION_DDOT":0},{"OBJECT_NAME":"IRIDIUM 33 DEB","OBJECT_ID":"1997-051BG","EPOCH":"2026-03-15T05:14:10.896288","MEAN_MOTION":14.37329195,"ECCENTRICITY":0.00045284,"INCLINATION":86.3068,"RA_OF_ASC_NODE":323.5663,"ARG_OF_PERICENTER":313.079,"MEAN_ANOMALY":168.682,"EPHEMERIS_TYPE":0,"CLASSIFICATION_TYPE":"U","NORAD_CAT_ID":33887,"ELEMENT_SET_NO":999,"REV_AT_EPOCH":89493,"BSTAR":0.0001283755,"MEAN_MOTION_DOT":4.03e-6,"MEAN_MOTION_DDOT":0},{"OBJECT_NAME":"IRIDIUM 33 DEB","OBJECT_ID":"1997-051BN","EPOCH":"2026-03-15T07:16:08.919264","MEAN_MOTION":14.56463959,"ECCENTRICITY":0.00171207,"INCLINATION":86.3889,"RA_OF_ASC_NODE":13.5664,"ARG_OF_PERICENTER":138.1938,"MEAN_ANOMALY":347.7373,"EPHEMERIS_TYPE":0,"CLASSIFICATION_TYPE":"U","NORAD_CAT_ID":33953,"ELEMENT_SET_NO":999,"REV_AT_EPOCH":89650,"BSTAR":0.0012234699,"MEAN_MOTION_DOT":5.467e-5,"MEAN_MOTION_DDOT":0}]
