IRIDIUM 33              
1 24946U 97051C   26074.23420765  .00000302  00000+0  98895-4 0  9992
2 24946  86.3892  29.3715 0005727 275.4478  84.6065 14.35105115491614
IRIDIUM 33 DEB          
1 33773U 97051L   26074.26564772  .00001150  00000+0  33426-3 0  9990
2 33773  86.4045  21.3606 0009952 196.8640 163.2232 14.43494400896824
IRIDIUM 33 DEB          
1 33775U 97051N   26074.24693642  .00001545  00000+0  46716-3 0  9993
2 33775  86.3681  10.0489 0011272 210.7044 270.5229 14.41777504894730
IRIDIUM 33 DEB          
1 33776U 97051P   26074.18370995  .00000971  00000+0  31202-3 0  9996
2 33776  86.4034  41.9180 0012215 252.8621 117.8044 14.38417232894116
IRIDIUM 33 DEB          
1 33777U 97051Q   26074.26914509  .00002724  00000+0  60989-3 0  9993
2 33777  86.3834 354.9351 0005438 325.3987  34.6866 14.56363905898806
IRIDIUM 33 DEB          
1 33850U 97051T   26074.27519256  .00000945  00000+0  27926-3 0  9993
2 33850  86.3468 350.3947 0009414 219.1249 265.5247 14.42494114894863
IRIDIUM 33 DEB          
1 33853U 97051W   26074.18000018  .00002031  00000+0  11443-2 0  9991
2 33853  85.9995 309.2770 0208792 313.5251 175.8381 13.99610413866386
IRIDIUM 33 DEB          
1 33860U 97051AD  26074.29173423  .00008848  00000+0  14984-2 0  9997
2 33860  86.3871 346.2262 0010857  32.9436  88.3227 14.69168761900804
IRIDIUM 33 DEB          
1 33862U 97051AF  26074.26507406  .00014058  00000+0  21879-2 0  9999
2 33862  86.4128 356.6569 0051659 104.7439  10.2101 14.71994661901831
IRIDIUM 33 DEB          
1 33866U 97051AK  26074.21439690  .00003015  00000+0  11842-2 0  9997
2 33866  86.2996  53.8764 0110311 224.3354 145.9479 14.25778194881285
IRIDIUM 33 DEB          
1 33870U 97051AP  26074.28175532  .00002748  00000+0  75802-3 0  9990
2 33870  86.3783  18.5659 0018392 232.6968 246.9779 14.46437673894742
IRIDIUM 33 DEB          
1 33881U 97051BA  26074.23468708  .00017727  00000+0  36762-2 0  9991
2 33881  86.3827  66.4412 0052015 221.3751 153.8395 14.59246732888489
IRIDIUM 33 DEB          
1 33884U 97051BD  26074.16622801  .00018767  00000+0  24420-2 0  9995
2 33884  86.3713 328.0208 0012347   1.9353 122.1226 14.80502106902135
IRIDIUM 33 DEB          
1 33886U 97051BF  26074.27965363  .00000636  00000+0  21156-3 0  9992
2 33886  86.3855  28.2534 0012380 310.6415 165.5262 14.36176806893800
IRIDIUM 33 DEB          
1 33887U 97051BG  26074.21818167  .00000403  00000+0  12838-3 0  9995
2 33887  86.3068 323.5663 0004528 313.0790 168.6820 14.37329195894930
IRIDIUM 33 DEB          
1 33953U 97051BN  26074.30288101  .00005467  00000+0  12235-2 0  9993
2 33953  86.3889  13.5664 0017120 138.1938 347.7373 14.56463959896500
